[{"OBJECT_NAME":"STARLINK-5679","OBJECT_ID":"2023-015U","EPOCH":"2026-03-09T10:05:42.940032","MEAN_MOTION":15.02531061,"ECCENTRICITY":8.123e-5,"INCLINATION":43.0019,"RA_OF_ASC_NODE":327.445,"ARG_OF_PERICENTER":280.2917,"MEAN_ANOMALY":79.7834,"EPHEMERIS_TYPE":0,"CLASSIFICATION_TYPE":"U","NORAD_CAT_ID":55467,"ELEMENT_SET_NO":999,"REV_AT_EPOCH":17071,"BSTAR":1.4215509e-5,"MEAN_MOTION_DOT":-1.1e-7,"MEAN_MOTION_DDOT":0},{"OBJECT_NAME":"CZ-6A DEB","OBJECT_ID":"2022-151ACK","EPOCH":"2026-03-09T17:07:55.484832","MEAN_MOTION":14.91029585,"ECCENTRICITY":0.00541971,"INCLINATION":98.6318,"RA_OF_ASC_NODE":144.964,"ARG_OF_PERICENTER":183.961,"MEAN_ANOMALY":176.1184,"EPHEMERIS_TYPE":0,"CLASSIFICATION_TYPE":"U","NORAD_CAT_ID":56267,"ELEMENT_SET_NO":999,"REV_AT_EPOCH":16429,"BSTAR":0.0040603804,"MEAN_MOTION_DOT":0.00041466,"MEAN_MOTION_DDOT":0}]
